[{"OBJECT_NAME":"UNKNOWN","OBJECT_ID":"","EPOCH":"2026-04-05T04:59:41.900640","MEAN_MOTION":14.13498557,"ECCENTRICITY":0.02173139,"INCLINATION":88.9149,"RA_OF_ASC_NODE":278.2945,"ARG_OF_PERICENTER":15.3964,"MEAN_ANOMALY":345.3695,"EPHEMERIS_TYPE":0,"CLASSIFICATION_TYPE":"U","NORAD_CAT_ID":270438,"ELEMENT_SET_NO":999,"REV_AT_EPOCH":8322,"BSTAR":0.00058771104,"MEAN_MOTION_DOT":1.4e-5,"MEAN_MOTION_DDOT":0}]
